{"type": "FeatureCollection", "features": [ {"type": "Feature", "properties": {"norad_id": 35147, "name": "FENGYUN 1C DEB", "group": "fengyun-1c-debris", "lat": 44.42217703500406, "lon": -92.76384147583393, "alt_km": 623.7918819660172, "timestamp": "2025-12-27T22:26:48.890249+00:00", "meta": {"OBJECT_NAME": "FENGYUN 1C DEB", "OBJECT_ID": "1999-025DMB", "EPOCH": "2025-12-27T12:04:05.208384", "MEAN_MOTION": 14.7471916, "ECCENTRICITY": 0.0027569, "INCLINATION": 99.4852, "RA_OF_ASC_NODE": 77.2999, "ARG_OF_PERICENTER": 154.2613, "MEAN_ANOMALY": 205.9969, "EPHEMERIS_TYPE": 0, "CLASSIFICATION_TYPE": "U", "NORAD_CAT_ID": 35147, "ELEMENT_SET_NO": 999, "REV_AT_EPOCH": 74522, "BSTAR": 0.0023557, "MEAN_MOTION_DOT": 0.00015807, "MEAN_MOTION_DDOT": 0}, "tle": {"line1": "1 35147U 99025DMB 25361.50283806  .00015807  00000+0  23557-2 0  9998", "line2": "2 35147  99.4852  77.2999 0027569 154.2613 205.9969 14.74719160745223"}}, "geometry": {"type": "Point", "coordinates": [-92.76384147583393, 44.42217703500406]}}, {"type": "Feature", "properties": {"norad_id": 35152, "name": "FENGYUN 1C DEB", "group": "fengyun-1c-debris", "lat": -79.63097105542407, "lon": -66.05833223364806, "alt_km": 931.3740497402714, "timestamp": "2025-12-27T22:26:48.890259+00:00", "meta": {"OBJECT_NAME": "FENGYUN 1C DEB", "OBJECT_ID": "1999-025DMG", "EPOCH": "2025-12-24T11:08:58.902432", "MEAN_MOTION": 13.76447569, "ECCENTRICITY": 0.0194175, "INCLINATION": 99.8191, "RA_OF_ASC_NODE": 181.5284, "ARG_OF_PERICENTER": 345.1491, "MEAN_ANOMALY": 14.4005, "EPHEMERIS_TYPE": 0, "CLASSIFICATION_TYPE": "U", "NORAD_CAT_ID": 35152, "ELEMENT_SET_NO": 999, "REV_AT_EPOCH": 62354, "BSTAR": 0.00059063629, "MEAN_MOTION_DOT": 6.15e-06, "MEAN_MOTION_DDOT": 0}, "tle": {"line1": "1 35152U 99025DMG 25358.46457063  .00000615  00000+0  59064-3 0  9997", "line2": "2 35152  99.8191 181.5284 0194175 345.1491  14.4005 13.76447569623544"}}, "geometry": {"type": "Point", "coordinates": [-66.05833223364806, -79.63097105542407]}}, {"type": "Feature", "properties": {"norad_id": 35153, "name": "FENGYUN 1C DEB", "group": "fengyun-1c-debris", "lat": 43.728699390743344, "lon": -113.40284201054598, "alt_km": 526.5043764511438, "timestamp": "2025-12-27T22:26:48.890268+00:00", "meta": {"OBJECT_NAME": "FENGYUN 1C DEB", "OBJECT_ID": "1999-025DMH", "EPOCH": "2025-12-26T10:24:24.463008", "MEAN_MOTION": 14.73816749, "ECCENTRICITY": 0.0170709, "INCLINATION": 98.9017, "RA_OF_ASC_NODE": 253.572, "ARG_OF_PERICENTER": 40.6412, "MEAN_ANOMALY": 320.7389, "EPHEMERIS_TYPE": 0, "CLASSIFICATION_TYPE": "U", "NORAD_CAT_ID": 35153, "ELEMENT_SET_NO": 999, "REV_AT_EPOCH": 97419, "BSTAR": 0.00043987, "MEAN_MOTION_DOT": 3.567e-05, "MEAN_MOTION_DDOT": 0}, "tle": {"line1": "1 35153U 99025DMH 25360.43361647  .00003567  00000+0  43987-3 0  9996", "line2": "2 35153  98.9017 253.5720 0170709  40.6412 320.7389 14.73816749974190"}}, "geometry": {"type": "Point", "coordinates": [-113.40284201054598, 43.728699390743344]}}, {"type": "Feature", "properties": {"norad_id": 35154, "name": "FENGYUN 1C DEB", "group": "fengyun-1c-debris", "lat": -49.73991782652996, "lon": -66.93693681255805, "alt_km": 915.8208636454237, "timestamp": "2025-12-27T22:26:48.890278+00:00", "meta": {"OBJECT_NAME": "FENGYUN 1C DEB", "OBJECT_ID": "1999-025DMJ", "EPOCH": "2025-12-24T01:58:11.654976", "MEAN_MOTION": 14.18912921, "ECCENTRICITY": 0.0178909, "INCLINATION": 99.4221, "RA_OF_ASC_NODE": 120.2762, "ARG_OF_PERICENTER": 10.5644, "MEAN_ANOMALY": 349.921, "EPHEMERIS_TYPE": 0, "CLASSIFICATION_TYPE": "U", "NORAD_CAT_ID": 35154, "ELEMENT_SET_NO": 999, "REV_AT_EPOCH": 64738, "BSTAR": 0.00026986372, "MEAN_MOTION_DOT": 6.08e-06, "MEAN_MOTION_DDOT": 0}, "tle": {"line1": "1 35154U 99025DMJ 25358.08207934  .00000608  00000+0  26986-3 0  9996", "line2": "2 35154  99.4221 120.2762 0178909  10.5644 349.9210 14.18912921647385"}}, "geometry": {"type": "Point", "coordinates": [-66.93693681255805, -49.73991782652996]}}, {"type": "Feature", "properties": {"norad_id": 35155, "name": "FENGYUN 1C DEB", "group": "fengyun-1c-debris", "lat": 12.810647857417173, "lon": 11.039583222380351, "alt_km": 810.946278833002, "timestamp": "2025-12-27T22:26:48.890288+00:00", "meta": {"OBJECT_NAME": "FENGYUN 1C DEB", "OBJECT_ID": "1999-025DMK", "EPOCH": "2025-12-24T18:15:01.567584", "MEAN_MOTION": 14.19312867, "ECCENTRICITY": 0.00258689, "INCLINATION": 98.5001, "RA_OF_ASC_NODE": 9.9422, "ARG_OF_PERICENTER": 39.4189, "MEAN_ANOMALY": 320.8864, "EPHEMERIS_TYPE": 0, "CLASSIFICATION_TYPE": "U", "NORAD_CAT_ID": 35155, "ELEMENT_SET_NO": 999, "REV_AT_EPOCH": 72884, "BSTAR": 0.00057480531, "MEAN_MOTION_DOT": 1.169e-05, "MEAN_MOTION_DDOT": 0}, "tle": {"line1": "1 35155U 99025DMK 25358.76043481  .00001169  00000+0  57481-3 0  9994", "line2": "2 35155  98.5001   9.9422 0025868  39.4189 320.8864 14.19312867728845"}}, "geometry": {"type": "Point", "coordinates": [11.039583222380351, 12.810647857417173]}}, {"type": "Feature", "properties": {"norad_id": 35156, "name": "FENGYUN 1C DEB", "group": "fengyun-1c-debris", "lat": -20.000977932324904, "lon": -8.826390972286596, "alt_km": 877.9662359771955, "timestamp": "2025-12-27T22:26:48.890298+00:00", "meta": {"OBJECT_NAME": "FENGYUN 1C DEB", "OBJECT_ID": "1999-025DML", "EPOCH": "2025-12-22T09:45:46.789920", "MEAN_MOTION": 14.10637167, "ECCENTRICITY": 0.00374137, "INCLINATION": 98.7528, "RA_OF_ASC_NODE": 342.5755, "ARG_OF_PERICENTER": 121.1131, "MEAN_ANOMALY": 239.3719, "EPHEMERIS_TYPE": 0, "CLASSIFICATION_TYPE": "U", "NORAD_CAT_ID": 35156, "ELEMENT_SET_NO": 999, "REV_AT_EPOCH": 64180, "BSTAR": 0.00031397822, "MEAN_MOTION_DOT": 5.21e-06, "MEAN_MOTION_DDOT": 0}, "tle": {"line1": "1 35156U 99025DML 25356.40679155  .00000521  00000+0  31398-3 0  9997", "line2": "2 35156  98.7528 342.5755 0037413 121.1131 239.3719 14.10637167641809"}}, "geometry": {"type": "Point", "coordinates": [-8.826390972286596, -20.000977932324904]}}, {"type": "Feature", "properties": {"norad_id": 35159, "name": "FENGYUN 1C DEB", "group": "fengyun-1c-debris", "lat": 63.79787224204772, "lon": -83.80561500014095, "alt_km": 725.8333516867569, "timestamp": "2025-12-27T22:26:48.890307+00:00", "meta": {"OBJECT_NAME": "FENGYUN 1C DEB", "OBJECT_ID": "1999-025DMP", "EPOCH": "2025-12-27T03:46:49.537920", "MEAN_MOTION": 14.45330766, "ECCENTRICITY": 0.00129085, "INCLINATION": 98.8397, "RA_OF_ASC_NODE": 76.9499, "ARG_OF_PERICENTER": 133.5245, "MEAN_ANOMALY": 256.6581, "EPHEMERIS_TYPE": 0, "CLASSIFICATION_TYPE": "U", "NORAD_CAT_ID": 35159, "ELEMENT_SET_NO": 999, "REV_AT_EPOCH": 61689, "BSTAR": 0.0021662628, "MEAN_MOTION_DOT": 7.578e-05, "MEAN_MOTION_DDOT": 0}, "tle": {"line1": "1 35159U 99025DMP 25361.15751780  .00007578  00000+0  21663-2 0  9995", "line2": "2 35159  98.8397  76.9499 0012908 133.5245 256.6581 14.45330766616898"}}, "geometry": {"type": "Point", "coordinates": [-83.80561500014095, 63.79787224204772]}}, {"type": "Feature", "properties": {"norad_id": 35160, "name": "FENGYUN 1C DEB", "group": "fengyun-1c-debris", "lat": 48.12620777422469, "lon": 106.94699815807728, "alt_km": 871.2678362508941, "timestamp": "2025-12-27T22:26:48.890317+00:00", "meta": {"OBJECT_NAME": "FENGYUN 1C DEB", "OBJECT_ID": "1999-025DMQ", "EPOCH": "2025-12-24T13:56:33.825120", "MEAN_MOTION": 14.36001877, "ECCENTRICITY": 0.01764255, "INCLINATION": 99.1558, "RA_OF_ASC_NODE": 113.7491, "ARG_OF_PERICENTER": 204.8514, "MEAN_ANOMALY": 154.4098, "EPHEMERIS_TYPE": 0, "CLASSIFICATION_TYPE": "U", "NORAD_CAT_ID": 35160, "ELEMENT_SET_NO": 999, "REV_AT_EPOCH": 65101, "BSTAR": 0.00054836097, "MEAN_MOTION_DOT": 1.847e-05, "MEAN_MOTION_DDOT": 0}, "tle": {"line1": "1 35160U 99025DMQ 25358.58094705  .00001847  00000+0  54836-3 0  9999", "line2": "2 35160  99.1558 113.7491 0176425 204.8514 154.4098 14.36001877651010"}}, "geometry": {"type": "Point", "coordinates": [106.94699815807728, 48.12620777422469]}}, {"type": "Feature", "properties": {"norad_id": 35165, "name": "FENGYUN 1C DEB", "group": "fengyun-1c-debris", "lat": 64.12255001123987, "lon": 75.4170567443505, "alt_km": 762.882204708797, "timestamp": "2025-12-27T22:26:48.890326+00:00", "meta": {"OBJECT_NAME": "FENGYUN 1C DEB", "OBJECT_ID": "1999-025DMV", "EPOCH": "2025-12-21T05:22:21.779616", "MEAN_MOTION": 14.33882696, "ECCENTRICITY": 0.0020007, "INCLINATION": 98.8797, "RA_OF_ASC_NODE": 87.3309, "ARG_OF_PERICENTER": 36.4089, "MEAN_ANOMALY": 323.8451, "EPHEMERIS_TYPE": 0, "CLASSIFICATION_TYPE": "U", "NORAD_CAT_ID": 35165, "ELEMENT_SET_NO": 999, "REV_AT_EPOCH": 89842, "BSTAR": 0.0014686, "MEAN_MOTION_DOT": 4.055e-05, "MEAN_MOTION_DDOT": 0}, "tle": {"line1": "1 35165U 99025DMV 25355.22386319  .00004055  00000+0  14686-2 0  9999", "line2": "2 35165  98.8797  87.3309 0020007  36.4089 323.8451 14.33882696898426"}}, "geometry": {"type": "Point", "coordinates": [75.4170567443505, 64.12255001123987]}}, {"type": "Feature", "properties": {"norad_id": 35167, "name": "FENGYUN 1C DEB", "group": "fengyun-1c-debris", "lat": 38.63147858328527, "lon": -12.090916348752335, "alt_km": 864.1325607657845, "timestamp": "2025-12-27T22:26:48.890336+00:00", "meta": {"OBJECT_NAME": "FENGYUN 1C DEB", "OBJECT_ID": "1999-025DMX", "EPOCH": "2025-12-24T05:19:40.498464", "MEAN_MOTION": 14.31185435, "ECCENTRICITY": 0.02299079, "INCLINATION": 98.4495, "RA_OF_ASC_NODE": 351.1168, "ARG_OF_PERICENTER": 170.1263, "MEAN_ANOMALY": 190.4555, "EPHEMERIS_TYPE": 0, "CLASSIFICATION_TYPE": "U", "NORAD_CAT_ID": 35167, "ELEMENT_SET_NO": 999, "REV_AT_EPOCH": 70184, "BSTAR": 0.00033183096, "MEAN_MOTION_DOT": 1.122e-05, "MEAN_MOTION_DDOT": 0}, "tle": {"line1": "1 35167U 99025DMX 25358.22199651  .00001122  00000+0  33183-3 0  9991", "line2": "2 35167  98.4495 351.1168 0229907 170.1263 190.4555 14.31185435701841"}}, "geometry": {"type": "Point", "coordinates": [-12.090916348752335, 38.63147858328527]}}]}